NORAD_CAT_ID,OBJECT_NAME,OBJECT_TYPE,EPOCH,MEAN_MOTION,ECCENTRICITY,INCLINATION,RA_OF_ASC_NODE,ARG_OF_PERICENTER,MEAN_ANOMALY,BSTAR,MEAN_MOTION_DOT,MEAN_MOTION_DDOT,TLE_LINE0,TLE_LINE1,TLE_LINE2,SEMIMAJOR_AXIS,PERIOD,APOGEE,PERIGEE,DECAYED
52477.0,STARLINK-3860,PAYLOAD,2023-10-21 20:43:57,15.08840581,0.0001374,53.2181,353.9262,96.1418,263.9731,0.00041274,6.287e-05,0.0,0 STARLINK-3860,1 52477U 22049AC  23294.86386523  .00006287  00000-0  41274-3 0  9997,2 52477  53.2181 353.9262 0001374  96.1418 263.9731 15.08840581 82316,6917.879,95.438,540.694,538.793,0.0
52477.0,STARLINK-3860,PAYLOAD,2023-10-22 04:40:53,15.08838963,0.0001509,53.2193,352.4419,105.9847,254.1311,9.5734e-05,1.236e-05,0.0,0 STARLINK-3860,1 52477U 22049AC  23295.19506773  .00001236  00000-0  95734-4 0  9995,2 52477  53.2193 352.4419 0001509 105.9847 254.1311 15.08838963 81284,6917.884,95.438,540.792,538.705,0.0
52477.0,STARLINK-3860,PAYLOAD,2023-10-22 11:02:26,15.08837237,0.0001537,53.2192,351.2525,109.2233,250.8925,0.00016482,2.336e-05,0.0,0 STARLINK-3860,1 52477U 22049AC  23295.46002895  .00002336  00000-0  16482-3 0  9995,2 52477  53.2192 351.2525 0001537 109.2233 250.8925 15.08837237 82407,6917.889,95.438,540.817,538.691,0.0
52477.0,STARLINK-3860,PAYLOAD,2023-10-22 20:34:45,15.08834414,0.0001235,53.2177,349.4674,103.6575,256.4555,5.2671e-06,-2.04e-06,0.0,0 STARLINK-3860,1 52477U 22049AC  23295.85746981 -.00000204  00000-0  52671-5 0  9994,2 52477  53.2177 349.4674 0001235 103.6575 256.4555 15.08834414 82467,6917.897,95.438,540.617,538.908,0.0
52477.0,STARLINK-3860,PAYLOAD,2023-10-23 10:53:13,15.08834639,0.0001465,53.2178,346.7897,93.7227,266.3933,-2.2389e-05,-6.44e-06,0.0,0 STARLINK-3860,1 52477U 22049AC  23296.45363404 -.00000644  00000-0 -22389-4 0  9997,2 52477  53.2178 346.7897 0001465  93.7227 266.3933 15.08834639 81472,6917.897,95.438,540.775,538.748,0.0
52477.0,STARLINK-3860,PAYLOAD,2023-10-24 10:44:00,15.08842488,0.0001587,53.2181,342.326,81.8492,278.2681,0.00016122,2.279e-05,0.0,0 STARLINK-3860,1 52477U 22049AC  23297.44723376  .00002279  00000-0  16122-3 0  9996,2 52477  53.2181 342.3260 0001587  81.8492 278.2681 15.08842488 82709,6917.873,95.437,540.836,538.64,0.0
52477.0,STARLINK-3860,PAYLOAD,2023-10-25 20:07:06,15.08846368,0.0001562,53.2184,336.0785,87.899,272.2181,0.00014457,2.014e-05,0.0,0 STARLINK-3860,1 52477U 22049AC  23298.83827121  .00002014  00000-0  14457-3 0  9999,2 52477  53.2184 336.0785 0001562  87.8990 272.2181 15.08846368 81839,6917.861,95.437,540.806,538.645,0.0
52477.0,STARLINK-3860,PAYLOAD,2023-10-26 08:50:11,15.08845947,0.0001585,53.2164,333.7036,89.1825,270.9349,8.5475e-05,1.073e-05,0.0,0 STARLINK-3860,1 52477U 22049AC  23299.36819040  .00001073  00000-0  85475-4 0  9992,2 52477  53.2164 333.7036 0001585  89.1825 270.9349 15.08845947 82998,6917.862,95.437,540.824,538.631,0.0
52477.0,STARLINK-3860,PAYLOAD,2023-10-26 19:57:53,15.08845066,0.0001618,53.2164,331.6225,87.0083,273.1095,9.0241e-05,1.149e-05,0.0,0 STARLINK-3860,1 52477U 22049AC  23299.83187052  .00001149  00000-0  90241-4 0  9996,2 52477  53.2164 331.6225 0001618  87.0083 273.1095 15.08845066 83069,6917.865,95.437,540.849,538.611,0.0
52477.0,STARLINK-3860,PAYLOAD,2023-10-27 11:51:44,15.08854244,0.0001621,53.2168,328.6463,90.2531,269.8647,0.00015412,2.167e-05,0.0,0 STARLINK-3860,1 52477U 22049AC  23300.49426318  .00002167  00000-0  15412-3 0  9999,2 52477  53.2168 328.6463 0001621  90.2531 269.8647 15.08854244 83165,6917.837,95.437,540.823,538.58,0.0
52477.0,STARLINK-3860,PAYLOAD,2023-10-28 08:31:46,15.08835997,0.0001482,53.2154,324.7813,94.5967,265.5194,3.4607e-05,2.63e-06,0.0,0 STARLINK-3860,1 52477U 22049AC  23301.35539392  .00000263  00000-0  34607-4 0  9995,2 52477  53.2154 324.7813 0001482  94.5967 265.5194 15.08835997 82210,6917.893,95.438,540.783,538.732,0.0
52477.0,STARLINK-3860,PAYLOAD,2023-10-29 08:22:32,15.08847117,0.0001535,53.2159,320.3222,93.0018,267.115,0.00026804,3.981e-05,0.0,0 STARLINK-3860,1 52477U 22049AC  23302.34899157  .00003981  00000-0  26804-3 0  9992,2 52477  53.2159 320.3222 0001535  93.0018 267.1150 15.08847117 82364,6917.859,95.437,540.786,538.662,0.0
52477.0,STARLINK-3860,PAYLOAD,2023-10-29 22:41:01,15.0882697,0.000144,53.2158,317.6427,82.5933,277.5222,-7.9161e-05,-1.547e-05,0.0,0 STARLINK-3860,1 52477U 22049AC  23302.94515924 -.00001547  00000-0 -79161-4 0  9998,2 52477  53.2158 317.6427 0001440  82.5933 277.5222 15.08826970 83532,6917.92,95.438,540.781,538.789,0.0
52477.0,STARLINK-3860,PAYLOAD,2023-10-30 05:02:33,15.08837483,0.0002064,53.2175,316.4569,108.2068,251.9149,-8.8523e-05,-1.697e-05,0.0,0 STARLINK-3860,1 52477U 22049AC  23303.21011418 -.00001697  00000-0 -88523-4 0  9996,2 52477  53.2175 316.4569 0002064 108.2068 251.9149 15.08837483 82492,6917.888,95.438,541.181,538.325,0.0
52477.0,STARLINK-3860,PAYLOAD,2023-10-30 17:45:39,15.08835762,0.0001584,53.2159,314.0753,90.8038,269.3135,4.6463e-05,4.51e-06,0.0,0 STARLINK-3860,1 52477U 22049AC  23303.74003848  .00000451  00000-0  46463-4 0  9994,2 52477  53.2159 314.0753 0001584  90.8038 269.3135 15.08835762 83657,6917.893,95.438,540.854,538.663,0.0
52477.0,STARLINK-3860,PAYLOAD,2023-10-31 08:04:07,15.08840909,0.0001664,53.2166,311.4004,94.1121,266.0062,0.00010749,1.423e-05,0.0,0 STARLINK-3860,1 52477U 22049AC  23304.33619900  .00001423  00000-0  10749-3 0  9999,2 52477  53.2166 311.4004 0001664  94.1121 266.0062 15.08840909 82666,6917.878,95.437,540.894,538.591,0.0
52477.0,STARLINK-3860,PAYLOAD,2023-10-31 17:36:26,15.08841935,0.0001636,53.2165,309.616,88.7517,271.3663,0.00017294,2.466e-05,0.0,0 STARLINK-3860,1 52477U 22049AC  23304.73364016  .00002466  00000-0  17294-3 0  9998,2 52477  53.2165 309.6160 0001636  88.7517 271.3663 15.08841935 83807,6917.874,95.437,540.871,538.608,0.0
52477.0,STARLINK-3860,PAYLOAD,2023-11-01 04:44:08,15.08837801,0.0001635,53.2166,307.5346,87.3898,272.7281,0.00016765,2.381e-05,0.0,0 STARLINK-3860,1 52477U 22049AC  23305.19732350  .00002381  00000-0  16765-3 0  9997,2 52477  53.2166 307.5346 0001635  87.3898 272.7281 15.08837801 82792,6917.887,95.438,540.883,538.621,0.0
52477.0,STARLINK-3860,PAYLOAD,2023-11-01 07:54:54,15.08839894,0.0001638,53.2167,306.94,85.3447,274.7732,0.00017566,2.509e-05,0.0,0 STARLINK-3860,1 52477U 22049AC  23305.32980275  .00002509  00000-0  17566-3 0  9995,2 52477  53.2167 306.9400 0001638  85.3447 274.7732 15.08839894 83897,6917.881,95.438,540.879,538.613,0.0
52477.0,STARLINK-3860,PAYLOAD,2023-11-01 17:27:13,15.08840536,0.0001535,53.2165,305.1553,79.1346,280.9819,0.00014656,2.045e-05,0.0,0 STARLINK-3860,1 52477U 22049AC  23305.72724297  .00002045  00000-0  14656-3 0  9991,2 52477  53.2165 305.1553 0001535  79.1346 280.9819 15.08840536 83957,6917.879,95.438,540.806,538.682,0.0
52477.0,STARLINK-3860,PAYLOAD,2023-11-02 09:21:04,15.08849817,0.0001537,53.216,302.1797,86.0961,274.0207,0.00021596,3.152e-05,0.0,0 STARLINK-3860,1 52477U 22049AC  23306.38963901  .00003152  00000-0  21596-3 0  9992,2 52477  53.2160 302.1797 0001537  86.0961 274.0207 15.08849817 82978,6917.85,95.437,540.779,538.652,0.0
52477.0,STARLINK-3860,PAYLOAD,2023-11-02 17:18:00,15.08842506,0.0001661,53.2172,300.692,92.6301,267.4881,0.00010647,1.407e-05,0.0,0 STARLINK-3860,1 52477U 22049AC  23306.72084204  .00001407  00000-0  10647-3 0  9996,2 52477  53.2172 300.6920 0001661  92.6301 267.4881 15.08842506 83020,6917.873,95.437,540.887,538.589,0.0
52477.0,STARLINK-3860,PAYLOAD,2023-11-03 06:01:05,15.08858703,0.0001612,53.2174,298.3161,89.4754,270.6423,0.00039127,5.948e-05,0.0,0 STARLINK-3860,1 52477U 22049AC  23307.25075462  .00005948  00000-0  39127-3 0  9999,2 52477  53.2174 298.3161 0001612  89.4754 270.6423 15.08858703 83107,6917.823,95.436,540.803,538.573,0.0
52477.0,STARLINK-3860,PAYLOAD,2023-11-03 17:08:48,15.08837588,0.0001743,53.2178,296.2339,82.6685,277.4506,3.4746e-06,-2.33e-06,0.0,0 STARLINK-3860,1 52477U 22049AC  23307.71444510 -.00000233  00000-0  34746-5 0  9991,2 52477  53.2178 296.2339 0001743  82.6685 277.4506 15.08837588 83170,6917.888,95.438,540.959,538.547,0.0
52477.0,STARLINK-3860,PAYLOAD,2023-11-04 09:02:38,15.08849225,0.0001466,53.2159,293.2597,94.7463,265.3696,0.00018563,2.668e-05,0.0,0 STARLINK-3860,1 52477U 22049AC  23308.37683850  .00002668  00000-0  18563-3 0  9996,2 52477  53.2159 293.2597 0001466  94.7463 265.3696 15.08849225 83270,6917.852,95.437,540.731,538.703,0.0
52477.0,STARLINK-3860,PAYLOAD,2023-11-05 05:42:39,15.08851805,0.000147,53.2165,289.3941,87.6739,272.4421,0.00034515,5.211e-05,0.0,0 STARLINK-3860,1 52477U 22049AC  23309.23796042  .00005211  00000-0  34515-3 0  9992,2 52477  53.2165 289.3941 0001470  87.6739 272.4421 15.08851805 83405,6917.844,95.437,540.726,538.692,0.0
52477.0,STARLINK-3860,PAYLOAD,2023-11-05 08:53:25,15.08856242,0.0001445,53.2166,288.798,87.5895,272.5262,0.0005621,8.673e-05,0.0,0 STARLINK-3860,1 52477U 22049AC  23309.37043950  .00008673  00000-0  56210-3 0  9991,2 52477  53.2166 288.7980 0001445  87.5895 272.5262 15.08856242 84502,6917.831,95.437,540.695,538.696,0.0
52477.0,STARLINK-3860,PAYLOAD,2023-11-05 15:14:58,15.08847308,0.0001381,53.2162,287.607,84.6251,275.4898,0.00033374,5.029e-05,0.0,0 STARLINK-3860,1 52477U 22049AC  23309.63539946  .00005029  00000-0  33374-3 0  9993,2 52477  53.2162 287.6070 0001381  84.6251 275.4898 15.08847308 84543,6917.858,95.437,540.678,538.768,0.0
52477.0,STARLINK-3860,PAYLOAD,2023-11-06 02:22:39,15.08880184,0.0001458,53.2156,285.5274,108.8393,251.2757,0.00096614,0.00015138,0.0,0 STARLINK-3860,1 52477U 22049AC  23310.09906670  .00015138  00000-0  96614-3 0  9995,2 52477  53.2156 285.5274 0001458 108.8393 251.2757 15.08880184 83533,6917.758,95.435,540.631,538.614,0.0
52477.0,STARLINK-3860,PAYLOAD,2023-11-06 05:33:25,15.08889412,0.0001427,53.216,284.9335,96.2682,263.8473,0.0013769,0.00021723,0.0,0 STARLINK-3860,1 52477U 22049AC  23310.23154425  .00021723  00000-0  13769-2 0  9990,2 52477  53.2160 284.9335 0001427  96.2682 263.8473 15.08889412 84635,6917.729,95.434,540.582,538.607,0.0
